ONEWEB-0400             
1 50480U 21132M   26162.46975815  .00000001  00000+0 -30075-4 0  9998
2 50480  87.9167 336.5821 0001874  97.1689 262.9657 13.18684927220858
ONEWEB-0401             
1 50481U 21132N   26162.51527988  .00000079  00000+0  16724-3 0  9997
2 50481  87.9169 336.5702 0001692  85.5210 274.6115 13.18684934220866
ONEWEB-0402             
1 50482U 21132P   26162.55407242 -.00000007  00000+0 -51164-4 0  9993
2 50482  87.9168 336.5519 0001628  77.3329 282.7985 13.18686041220890
ONEWEB-0403             
1 50483U 21132Q   26162.50347615  .00000093  00000+0  20301-3 0  9997
2 50483  87.9167 336.5861 0001989  90.4404 269.6956 13.18684905220844
ONEWEB-0404             
1 50484U 21132R   26162.60925476  .00000398  00000+0  10870-2 0  9993
2 50484  87.8892  22.1774 0002141  84.2754 275.8618 13.11415524214962
ONEWEB-0405             
1 50485U 21132S   26162.51697675  .00000072  00000+0  15112-3 0  9995
2 50485  87.9170 336.5679 0001934 105.3906 254.7440 13.18686768221247
ONEWEB-0406             
1 50486U 21132T   26162.50853748  .00000077  00000+0  16341-3 0  9990
2 50486  87.9163 336.5863 0002391  88.2837 271.8569 13.18685199220872
ONEWEB-0407             
1 50487U 21132U   26162.50179911  .00000061  00000+0  12188-3 0  9992
2 50487  87.9168 336.5795 0001609  92.6375 267.4941 13.18684822220810
ONEWEB-0409             
1 50488U 21132V   26162.60755347  .00000519  00000+0  14280-2 0  9999
2 50488  87.8897  22.1656 0002101  87.3110 272.8259 13.11416436214855
ONEWEB-0412             
1 50489U 21132W   26162.56586184  .00000021  00000+0  19792-4 0  9999
2 50489  87.9165 336.5753 0001692  82.5767 277.5557 13.18684770220916
ONEWEB-0413             
1 50490U 21132X   26162.49505071  .00000138  00000+0  31807-3 0  9998
2 50490  87.9157 336.5884 0001567  86.1927 273.9384 13.18685476220847
ONEWEB-0414             
1 50491U 21132Y   26162.47987466  .00000038  00000+0  63562-4 0  9992
2 50491  87.9167 336.5727 0001853  85.6984 274.4360 13.18685166220879
ONEWEB-0417             
1 50492U 21132Z   26162.48830384  .00000080  00000+0  17128-3 0  9993
2 50492  87.9159 336.5912 0002079  91.3870 268.7500 13.18685566220850
ONEWEB-0418             
1 50493U 21132AA  26162.49829272  .00000044  00000+0  77637-4 0  9991
2 50493  87.9169 336.5882 0002124  91.9051 268.2324 13.18685115220912
ONEWEB-0419             
1 50494U 21132AB  26162.51679666  .00000110  00000+0  24626-3 0  9998
2 50494  87.9166 336.5843 0002087  97.3987 262.7382 13.18665823220831
ONEWEB-0420             
1 50495U 21132AC  26162.48155791  .00000015  00000+0  60013-5 0  9999
2 50495  87.9159 336.5948 0001639  93.4307 266.7013 13.18685743220822
ONEWEB-0421             
1 50496U 21132AD  26162.47481027  .00000055  00000+0  10567-3 0  9994
2 50496  87.9163 336.5935 0001872  79.5773 280.5570 13.18684731220867
ONEWEB-0424             
1 50497U 21132AE  26162.51191014  .00000077  00000+0  16305-3 0  9994
2 50497  87.9167 336.5840 0002024 101.3160 258.8200 13.18685119220893
ONEWEB-0426             
1 50498U 21132AF  26162.54647494  .00000023  00000+0  25963-4 0  9998
2 50498  87.9168 336.5682 0002378  79.0260 281.1140 13.18688968220845
ONEWEB-0427             
1 50499U 21132AG  26162.51022418  .00000096  00000+0  21061-3 0  9993
2 50499  87.9168 336.5641 0002070  90.3722 269.7647 13.18685138220861
ONEWEB-0429             
1 50500U 21132AH  26162.49673583  .00000095  00000+0  20935-3 0  9996
2 50500  87.9161 336.5915 0001722  92.0298 268.1031 13.18685816220831
ONEWEB-0430             
1 50501U 21132AJ  26162.48493069  .00000036  00000+0  59761-4 0  9990
2 50501  87.9161 336.5923 0001736  99.4072 260.7257 13.18686077220879
ONEWEB-0432             
1 50502U 21132AK  26162.75002315  .00002400  00000+0  61928-2 0  9994
2 50502  87.9168 336.5145 0002041 110.2857 252.1183 13.17150350  5262
ONEWEB-0440             
1 50503U 21132AL  26162.50516282  .00000107  00000+0  23920-3 0  9994
2 50503  87.9169 336.5838 0001636  83.1697 276.9622 13.18685296220828
ONEWEB-0450             
1 50504U 21132AM  26162.49856433  .00000079  00000+0  16782-3 0  9994
2 50504  87.9157 336.5910 0001662  94.0989 266.0333 13.18685881220853
ONEWEB-0410             
1 51622U 22012A   26162.59800132  .00000042  00000+0  75420-4 0  9995
2 51622  87.9146   6.9687 0003144  79.0970 281.0516 13.17648245212967
ONEWEB-0411             
1 51623U 22012B   26162.66796089 -.00000378  00000+0 -11188-2 0  9992
2 51623  87.8842  37.3657 0001571  99.4831 260.6474 13.10370078208565
ONEWEB-0415             
1 51624U 22012C   26162.66464809 -.00000185  00000+0 -56681-3 0  9999
2 51624  87.8836  37.3655 0001767  90.3566 269.7764 13.10369900208563
ONEWEB-0416             
1 51625U 22012D   26162.67626683 -.00000597  00000+0 -17474-2 0  9994
2 51625  87.8836  37.3816 0001992  94.7374 265.3981 13.10372311208606
ONEWEB-0422             
1 51626U 22012E   26162.60813157  .00000033  00000+0  51552-4 0  9992
2 51626  87.9142   6.9680 0001257  78.5445 281.5828 13.17648577213076
ONEWEB-0423             
1 51627U 22012F   26162.60138628  .00000051  00000+0  99192-4 0  9998
2 51627  87.9139   6.9751 0001927  84.2012 275.9339 13.17649839212963
