OBJECT_NAME,OBJECT_ID,EPOCH,MEAN_MOTION,ECCENTRICITY,INCLINATION,RA_OF_ASC_NODE,ARG_OF_PERICENTER,MEAN_ANOMALY,EPHEMERIS_TYPE,CLASSIFICATION_TYPE,NORAD_CAT_ID,ELEMENT_SET_NO,REV_AT_EPOCH,BSTAR,MEAN_MOTION_DOT,MEAN_MOTION_DDOT
ONEWEB-0400,2021-132M,2026-06-11T11:16:27.104160,13.18684927,.0001874,87.9167,336.5821,97.1689,262.9657,0,U,50480,999,22085,-.30075E-4,.1E-7,0
ONEWEB-0401,2021-132N,2026-06-11T12:22:00.181632,13.18684934,.0001692,87.9169,336.5702,85.5210,274.6115,0,U,50481,999,22086,.16724E-3,.79E-6,0
ONEWEB-0402,2021-132P,2026-06-11T13:17:51.857088,13.18686041,.0001628,87.9168,336.5519,77.3329,282.7985,0,U,50482,999,22089,-.51164E-4,-.7E-7,0
ONEWEB-0403,2021-132Q,2026-06-11T12:05:00.339360,13.18684905,.0001989,87.9167,336.5861,90.4404,269.6956,0,U,50483,999,22084,.20301E-3,.93E-6,0
ONEWEB-0404,2021-132R,2026-06-11T14:37:19.611264,13.11415524,.0002141,87.8892,22.1774,84.2754,275.8618,0,U,50484,999,21496,.1087E-2,.398E-5,0
ONEWEB-0405,2021-132S,2026-06-11T12:24:26.791200,13.18686768,.0001934,87.9170,336.5679,105.3906,254.7440,0,U,50485,999,22124,.15112E-3,.72E-6,0
ONEWEB-0406,2021-132T,2026-06-11T12:12:17.638272,13.18685199,.0002391,87.9163,336.5863,88.2837,271.8569,0,U,50486,999,22087,.16341E-3,.77E-6,0
ONEWEB-0407,2021-132U,2026-06-11T12:02:35.443104,13.18684822,.0001609,87.9168,336.5795,92.6375,267.4941,0,U,50487,999,22081,.12188E-3,.61E-6,0
ONEWEB-0409,2021-132V,2026-06-11T14:34:52.619808,13.11416436,.0002101,87.8897,22.1656,87.3110,272.8259,0,U,50488,999,21485,.1428E-2,.519E-5,0
ONEWEB-0412,2021-132W,2026-06-11T13:34:50.462976,13.18684770,.0001692,87.9165,336.5753,82.5767,277.5557,0,U,50489,999,22091,.19792E-4,.21E-6,0
ONEWEB-0413,2021-132X,2026-06-11T11:52:52.381344,13.18685476,.0001567,87.9157,336.5884,86.1927,273.9384,0,U,50490,999,22084,.31807E-3,.138E-5,0
ONEWEB-0414,2021-132Y,2026-06-11T11:31:01.170624,13.18685166,.0001853,87.9167,336.5727,85.6984,274.4360,0,U,50491,999,22087,.63562E-4,.38E-6,0
ONEWEB-0417,2021-132Z,2026-06-11T11:43:09.451776,13.18685566,.0002079,87.9159,336.5912,91.3870,268.7500,0,U,50492,999,22085,.17128E-3,.8E-6,0
ONEWEB-0418,2021-132AA,2026-06-11T11:57:32.491008,13.18685115,.0002124,87.9169,336.5882,91.9051,268.2324,0,U,50493,999,22091,.77637E-4,.44E-6,0
ONEWEB-0419,2021-132AB,2026-06-11T12:24:11.231424,13.18665823,.0002087,87.9166,336.5843,97.3987,262.7382,0,U,50494,999,22083,.24626E-3,.11E-5,0
ONEWEB-0420,2021-132AC,2026-06-11T11:33:26.603424,13.18685743,.0001639,87.9159,336.5948,93.4307,266.7013,0,U,50495,999,22082,.60013E-5,.15E-6,0
ONEWEB-0421,2021-132AD,2026-06-11T11:23:43.607328,13.18684731,.0001872,87.9163,336.5935,79.5773,280.5570,0,U,50496,999,22086,.10567E-3,.55E-6,0
ONEWEB-0424,2021-132AE,2026-06-11T12:17:09.036096,13.18685119,.0002024,87.9167,336.5840,101.3160,258.8200,0,U,50497,999,22089,.16305E-3,.77E-6,0
ONEWEB-0426,2021-132AF,2026-06-11T13:06:55.434816,13.18688968,.0002378,87.9168,336.5682,79.0260,281.1140,0,U,50498,999,22084,.25963E-4,.23E-6,0
ONEWEB-0427,2021-132AG,2026-06-11T12:14:43.369152,13.18685138,.000207,87.9168,336.5641,90.3722,269.7647,0,U,50499,999,22086,.21061E-3,.96E-6,0
ONEWEB-0429,2021-132AH,2026-06-11T11:55:17.975712,13.18685816,.0001722,87.9161,336.5915,92.0298,268.1031,0,U,50500,999,22083,.20935E-3,.95E-6,0
ONEWEB-0430,2021-132AJ,2026-06-11T11:38:18.011616,13.18686077,.0001736,87.9161,336.5923,99.4072,260.7257,0,U,50501,999,22087,.59761E-4,.36E-6,0
ONEWEB-0432,2021-132AK,2026-06-11T18:00:02.000160,13.17150350,.0002041,87.9168,336.5145,110.2857,252.1183,0,U,50502,999,526,.61928E-2,.24E-4,0
ONEWEB-0440,2021-132AL,2026-06-11T12:07:26.067648,13.18685296,.0001636,87.9169,336.5838,83.1697,276.9622,0,U,50503,999,22082,.2392E-3,.107E-5,0
ONEWEB-0450,2021-132AM,2026-06-11T11:57:55.958112,13.18685881,.0001662,87.9157,336.5910,94.0989,266.0333,0,U,50504,999,22085,.16782E-3,.79E-6,0
ONEWEB-0410,2022-012A,2026-06-11T14:21:07.314048,13.17648245,.0003144,87.9146,6.9687,79.0970,281.0516,0,U,51622,999,21296,.7542E-4,.42E-6,0
ONEWEB-0411,2022-012B,2026-06-11T16:01:51.820896,13.10370078,.0001571,87.8842,37.3657,99.4831,260.6474,0,U,51623,999,20856,-.11188E-2,-.378E-5,0
ONEWEB-0415,2022-012C,2026-06-11T15:57:05.594976,13.10369900,.0001767,87.8836,37.3655,90.3566,269.7764,0,U,51624,999,20856,-.56681E-3,-.185E-5,0
ONEWEB-0416,2022-012D,2026-06-11T16:13:49.454112,13.10372311,.0001992,87.8836,37.3816,94.7374,265.3981,0,U,51625,999,20860,-.17474E-2,-.597E-5,0
ONEWEB-0422,2022-012E,2026-06-11T14:35:42.567648,13.17648577,.0001257,87.9142,6.9680,78.5445,281.5828,0,U,51626,999,21307,.51552E-4,.33E-6,0
ONEWEB-0423,2022-012F,2026-06-11T14:25:59.774592,13.17649839,.0001927,87.9139,6.9751,84.2012,275.9339,0,U,51627,999,21296,.99192E-4,.51E-6,0
